{
    "links": {
        "self": "http://www.neowsapp.com/rest/v1/neo/3759283?api_key=iIulBulltgU6a56xZRHN4H3l9WmuAYTsLGpBGhQ2"
    },
    "id": "3759283",
    "neo_reference_id": "3759283",
    "name": "(2016 RB20)",
    "designation": "2016 RB20",
    "nasa_jpl_url": "http://ssd.jpl.nasa.gov/sbdb.cgi?sstr=3759283",
    "absolute_magnitude_h": 24.3,
    "estimated_diameter": {
        "kilometers": {
            "estimated_diameter_min": 0.0366906138,
            "estimated_diameter_max": 0.0820427065
        },
        "meters": {
            "estimated_diameter_min": 36.6906137531,
            "estimated_diameter_max": 82.0427064882
        },
        "miles": {
            "estimated_diameter_min": 0.0227984834,
            "estimated_diameter_max": 0.0509789586
        },
        "feet": {
            "estimated_diameter_min": 120.3760332259,
            "estimated_diameter_max": 269.1689931548
        }
    },
    "is_potentially_hazardous_asteroid": false,
    "close_approach_data": [
        {
            "close_approach_date": "2016-08-01",
            "close_approach_date_full": "2016-Aug-01 13:49",
            "epoch_date_close_approach": 1470059340000,
            "relative_velocity": {
                "kilometers_per_second": "7.0263218694",
                "kilometers_per_hour": "25294.7587299611",
                "miles_per_hour": "15717.1793897361"
            },
            "miss_distance": {
                "astronomical": "0.1218900126",
                "lunar": "47.4152149014",
                "kilometers": "18234486.259233162",
                "miles": "11330384.3645831556"
            },
            "orbiting_body": "Earth"
        }
    ],
    "orbital_data": {
        "orbit_id": "3",
        "orbit_determination_date": "2017-04-06 08:24:02",
        "first_observation_date": "2016-09-07",
        "last_observation_date": "2016-09-24",
        "data_arc_in_days": 17,
        "observations_used": 16,
        "orbit_uncertainty": "8",
        "minimum_orbit_intersection": ".100214",
        "jupiter_tisserand_invariant": "3.550",
        "epoch_osculation": "2457639.5",
        "eccentricity": ".5128304496325863",
        "semi_major_axis": "2.111127522551678",
        "inclination": "6.921225430539298",
        "ascending_node_longitude": "54.30441322683691",
        "orbital_period": "1120.392333257971",
        "perihelion_distance": "1.028477045929773",
        "perihelion_argument": "250.5368103772962",
        "aphelion_distance": "3.193777999173583",
        "perihelion_time": "2457599.155814719825",
        "mean_anomaly": "12.96323285132554",
        "mean_motion": ".3213160152151004",
        "equinox": "J2000",
        "orbit_class": {
            "orbit_class_type": "AMO",
            "orbit_class_description": "Near-Earth asteroid orbits similar to that of 1221 Amor",
            "orbit_class_range": "1.017 AU < q (perihelion) < 1.3 AU"
        }
    },
    "is_sentry_object": false
}